{"type": "FeatureCollection", "features": [ {"type": "Feature", "properties": {"norad_id": 60989, "name": "SENTINEL-2C", "group": "resource", "lat": 31.241903796940825, "lon": 65.76603474998, "alt_km": 786.9059373004638, "timestamp": "2025-12-24T16:52:41.158302+00:00", "meta": {"OBJECT_NAME": "SENTINEL-2C", "OBJECT_ID": "2024-157A", "EPOCH": "2025-12-24T04:58:56.875872", "MEAN_MOTION": 14.30816913, "ECCENTRICITY": 0.00013743, "INCLINATION": 98.5667, "RA_OF_ASC_NODE": 70.5242, "ARG_OF_PERICENTER": 104.0123, "MEAN_ANOMALY": 256.1212, "EPHEMERIS_TYPE": 0, "CLASSIFICATION_TYPE": "U", "NORAD_CAT_ID": 60989, "ELEMENT_SET_NO": 999, "REV_AT_EPOCH": 6796, "BSTAR": 7.5136715e-05, "MEAN_MOTION_DOT": 1.53e-06, "MEAN_MOTION_DDOT": 0}, "tle": {"line1": "1 60989U 24157A   25358.20760273  .00000153  00000+0  75137-4 0  9996", "line2": "2 60989  98.5667  70.5242 0001374 104.0123 256.1212 14.30816913 67964"}}, "geometry": {"type": "Point", "coordinates": [65.76603474998, 31.241903796940825]}}, {"type": "Feature", "properties": {"norad_id": 61735, "name": "IONOSFERA-M 1", "group": "resource", "lat": -49.52726408089669, "lon": -121.15387898256867, "alt_km": 822.863553537868, "timestamp": "2025-12-24T16:52:41.158313+00:00", "meta": {"OBJECT_NAME": "IONOSFERA-M 1", "OBJECT_ID": "2024-199A", "EPOCH": "2025-12-24T06:59:13.208640", "MEAN_MOTION": 14.22716497, "ECCENTRICITY": 3.914e-05, "INCLINATION": 98.7403, "RA_OF_ASC_NODE": 228.0503, "ARG_OF_PERICENTER": 6.6398, "MEAN_ANOMALY": 353.4785, "EPHEMERIS_TYPE": 0, "CLASSIFICATION_TYPE": "U", "NORAD_CAT_ID": 61735, "ELEMENT_SET_NO": 999, "REV_AT_EPOCH": 10283, "BSTAR": 4.7672595e-05, "MEAN_MOTION_DOT": 6.3e-07, "MEAN_MOTION_DDOT": 0}, "tle": {"line1": "1 61735U 24199A   25358.29112510  .00000063  00000+0  47673-4 0  9990", "line2": "2 61735  98.7403 228.0503 0000391   6.6398 353.4785 14.22716497102832"}}, "geometry": {"type": "Point", "coordinates": [-121.15387898256867, -49.52726408089669]}}, {"type": "Feature", "properties": {"norad_id": 61736, "name": "IONOSFERA-M 2", "group": "resource", "lat": 46.67553692945204, "lon": 57.75798601734347, "alt_km": 810.9827828428852, "timestamp": "2025-12-24T16:52:41.158323+00:00", "meta": {"OBJECT_NAME": "IONOSFERA-M 2", "OBJECT_ID": "2024-199B", "EPOCH": "2025-12-24T06:07:48.917856", "MEAN_MOTION": 14.22718682, "ECCENTRICITY": 0.00018503, "INCLINATION": 98.7395, "RA_OF_ASC_NODE": 227.9272, "ARG_OF_PERICENTER": 95.7299, "MEAN_ANOMALY": 264.409, "EPHEMERIS_TYPE": 0, "CLASSIFICATION_TYPE": "U", "NORAD_CAT_ID": 61736, "ELEMENT_SET_NO": 999, "REV_AT_EPOCH": 10595, "BSTAR": 4.498271e-05, "MEAN_MOTION_DOT": 5.7e-07, "MEAN_MOTION_DDOT": 0}, "tle": {"line1": "1 61736U 24199B   25358.25542729  .00000057  00000+0  44983-4 0  9990", "line2": "2 61736  98.7395 227.9272 0001850  95.7299 264.4090 14.22718682105958"}}, "geometry": {"type": "Point", "coordinates": [57.75798601734347, 46.67553692945204]}}, {"type": "Feature", "properties": {"norad_id": 63772, "name": "BIOMASS", "group": "resource", "lat": 81.73629793513665, "lon": 81.19083183837657, "alt_km": 660.6984902512859, "timestamp": "2025-12-24T16:52:41.158334+00:00", "meta": {"OBJECT_NAME": "BIOMASS", "OBJECT_ID": "2025-090A", "EPOCH": "2025-12-24T06:38:36.136032", "MEAN_MOTION": 14.67534384, "ECCENTRICITY": 0.000113, "INCLINATION": 98.0698, "RA_OF_ASC_NODE": 183.1183, "ARG_OF_PERICENTER": 84.8453, "MEAN_ANOMALY": 275.2881, "EPHEMERIS_TYPE": 0, "CLASSIFICATION_TYPE": "U", "NORAD_CAT_ID": 63772, "ELEMENT_SET_NO": 999, "REV_AT_EPOCH": 3503, "BSTAR": 0.00022358344, "MEAN_MOTION_DOT": 1.22e-05, "MEAN_MOTION_DDOT": 0}, "tle": {"line1": "1 63772U 25090A   25358.27680713  .00001220  00000+0  22358-3 0  9995", "line2": "2 63772  98.0698 183.1183 0001130  84.8453 275.2881 14.67534384 35038"}}, "geometry": {"type": "Point", "coordinates": [81.19083183837657, 81.73629793513665]}}, {"type": "Feature", "properties": {"norad_id": 64694, "name": "GOSAT-GW (IBUKI GW)", "group": "resource", "lat": -56.81434164658842, "lon": -53.51295327229702, "alt_km": 676.7070644247333, "timestamp": "2025-12-24T16:52:41.158344+00:00", "meta": {"OBJECT_NAME": "GOSAT-GW (IBUKI GW)", "OBJECT_ID": "2025-141A", "EPOCH": "2025-12-24T07:19:20.988192", "MEAN_MOTION": 14.67557236, "ECCENTRICITY": 0.00014297, "INCLINATION": 98.0436, "RA_OF_ASC_NODE": 293.6092, "ARG_OF_PERICENTER": 82.0867, "MEAN_ANOMALY": 278.05, "EPHEMERIS_TYPE": 0, "CLASSIFICATION_TYPE": "U", "NORAD_CAT_ID": 64694, "ELEMENT_SET_NO": 999, "REV_AT_EPOCH": 2619, "BSTAR": 0.00018535278, "MEAN_MOTION_DOT": 1.004e-05, "MEAN_MOTION_DDOT": 0}, "tle": {"line1": "1 64694U 25141A   25358.30510403  .00001004  00000+0  18535-3 0  9990", "line2": "2 64694  98.0436 293.6092 0001429  82.0867 278.0500 14.67557236 26195"}}, "geometry": {"type": "Point", "coordinates": [-53.51295327229702, -56.81434164658842]}}, {"type": "Feature", "properties": {"norad_id": 64876, "name": "IONOSFERA-M 3", "group": "resource", "lat": 57.13456037983179, "lon": 153.7453402405387, "alt_km": 814.7606485370061, "timestamp": "2025-12-24T16:52:41.158354+00:00", "meta": {"OBJECT_NAME": "IONOSFERA-M 3", "OBJECT_ID": "2025-155A", "EPOCH": "2025-12-24T07:51:37.397952", "MEAN_MOTION": 14.21443746, "ECCENTRICITY": 0.00018749, "INCLINATION": 98.5799, "RA_OF_ASC_NODE": 319.8665, "ARG_OF_PERICENTER": 41.197, "MEAN_ANOMALY": 318.9349, "EPHEMERIS_TYPE": 0, "CLASSIFICATION_TYPE": "U", "NORAD_CAT_ID": 64876, "ELEMENT_SET_NO": 999, "REV_AT_EPOCH": 2156, "BSTAR": 5.3658434e-05, "MEAN_MOTION_DOT": 7.5e-07, "MEAN_MOTION_DDOT": 0}, "tle": {"line1": "1 64876U 25155A   25358.32751618  .00000075  00000+0  53658-4 0  9997", "line2": "2 64876  98.5799 319.8665 0001874  41.1970 318.9349 14.21443746 21567"}}, "geometry": {"type": "Point", "coordinates": [153.7453402405387, 57.13456037983179]}}, {"type": "Feature", "properties": {"norad_id": 64877, "name": "IONOSFERA-M 4", "group": "resource", "lat": -56.610345234956334, "lon": -26.60744991768483, "alt_km": 827.813189397787, "timestamp": "2025-12-24T16:52:41.158364+00:00", "meta": {"OBJECT_NAME": "IONOSFERA-M 4", "OBJECT_ID": "2025-155B", "EPOCH": "2025-12-24T07:00:44.581824", "MEAN_MOTION": 14.21444863, "ECCENTRICITY": 0.00013092, "INCLINATION": 98.58, "RA_OF_ASC_NODE": 319.7516, "ARG_OF_PERICENTER": 52.3837, "MEAN_ANOMALY": 307.746, "EPHEMERIS_TYPE": 0, "CLASSIFICATION_TYPE": "U", "NORAD_CAT_ID": 64877, "ELEMENT_SET_NO": 999, "REV_AT_EPOCH": 2155, "BSTAR": 5.2511984e-05, "MEAN_MOTION_DOT": 7.2e-07, "MEAN_MOTION_DDOT": 0}, "tle": {"line1": "1 64877U 25155B   25358.29218266  .00000072  00000+0  52512-4 0  9996", "line2": "2 64877  98.5800 319.7516 0001309  52.3837 307.7460 14.21444863 21554"}}, "geometry": {"type": "Point", "coordinates": [-26.60744991768483, -56.610345234956334]}}, {"type": "Feature", "properties": {"norad_id": 64899, "name": "MICROCARB", "group": "resource", "lat": 64.93741784087793, "lon": -88.63963716212947, "alt_km": 635.7761404622333, "timestamp": "2025-12-24T16:52:41.158375+00:00", "meta": {"OBJECT_NAME": "MICROCARB", "OBJECT_ID": "2025-156A", "EPOCH": "2025-12-24T04:56:40.665408", "MEAN_MOTION": 14.72075083, "ECCENTRICITY": 0.00176076, "INCLINATION": 98.0011, "RA_OF_ASC_NODE": 73.367, "ARG_OF_PERICENTER": 110.3867, "MEAN_ANOMALY": 249.9233, "EPHEMERIS_TYPE": 0, "CLASSIFICATION_TYPE": "U", "NORAD_CAT_ID": 64899, "ELEMENT_SET_NO": 999, "REV_AT_EPOCH": 2222, "BSTAR": 0.00012288483, "MEAN_MOTION_DOT": 7.25e-06, "MEAN_MOTION_DDOT": 0}, "tle": {"line1": "1 64899U 25156A   25358.20602622  .00000725  00000+0  12288-3 0  9995", "line2": "2 64899  98.0011  73.3670 0017607 110.3867 249.9233 14.72075083 22227"}}, "geometry": {"type": "Point", "coordinates": [-88.63963716212947, 64.93741784087793]}}, {"type": "Feature", "properties": {"norad_id": 64900, "name": "CO3D 3", "group": "resource", "lat": 63.790449353548645, "lon": 59.518011987660174, "alt_km": 498.0845534584205, "timestamp": "2025-12-24T16:52:41.158385+00:00", "meta": {"OBJECT_NAME": "CO3D 3", "OBJECT_ID": "2025-156B", "EPOCH": "2025-12-24T07:06:56.775744", "MEAN_MOTION": 15.20214899, "ECCENTRICITY": 0.00013181, "INCLINATION": 97.4337, "RA_OF_ASC_NODE": 74.498, "ARG_OF_PERICENTER": 75.2062, "MEAN_ANOMALY": 284.9319, "EPHEMERIS_TYPE": 0, "CLASSIFICATION_TYPE": "U", "NORAD_CAT_ID": 64900, "ELEMENT_SET_NO": 999, "REV_AT_EPOCH": 2296, "BSTAR": 0.00031957382, "MEAN_MOTION_DOT": 6.859e-05, "MEAN_MOTION_DDOT": 0}, "tle": {"line1": "1 64900U 25156B   25358.29649046  .00006859  00000+0  31957-3 0  9996", "line2": "2 64900  97.4337  74.4980 0001318  75.2062 284.9319 15.20214899 22967"}}, "geometry": {"type": "Point", "coordinates": [59.518011987660174, 63.790449353548645]}}, {"type": "Feature", "properties": {"norad_id": 64901, "name": "CO3D 4", "group": "resource", "lat": 62.97952071935062, "lon": 60.064731531437594, "alt_km": 499.1246428209488, "timestamp": "2025-12-24T16:52:41.158396+00:00", "meta": {"OBJECT_NAME": "CO3D 4", "OBJECT_ID": "2025-156C", "EPOCH": "2025-12-24T07:07:09.848928", "MEAN_MOTION": 15.20217883, "ECCENTRICITY": 0.00014166, "INCLINATION": 97.4336, "RA_OF_ASC_NODE": 74.4981, "ARG_OF_PERICENTER": 159.4724, "MEAN_ANOMALY": 200.6569, "EPHEMERIS_TYPE": 0, "CLASSIFICATION_TYPE": "U", "NORAD_CAT_ID": 64901, "ELEMENT_SET_NO": 999, "REV_AT_EPOCH": 2296, "BSTAR": 0.00033993773, "MEAN_MOTION_DOT": 7.302e-05, "MEAN_MOTION_DDOT": 0}, "tle": {"line1": "1 64901U 25156C   25358.29664177  .00007302  00000+0  33994-3 0  9996", "line2": "2 64901  97.4336  74.4981 0001416 159.4724 200.6569 15.20217883 22965"}}, "geometry": {"type": "Point", "coordinates": [60.064731531437594, 62.97952071935062]}}]}